start=new Date('2022-08-16T00:00:00.000Z').valueOf();
sats=[{"RCS_SIZE":"LARGE","NORAD_CAT_ID":"46164","INCLINATION":"53.0554","FILE":"3537378","REF_FRAME":"TEME","PERIAPSIS":"546.182","ECCENTRICITY":"0.00014840","OBJECT_NAME":"STARLINK-1612","MEAN_MOTION":"15.06401191","EPOCH":"2022-08-15T19:18:25.519392","COUNTRY_CODE":"US","MEAN_MOTION_DOT":"0.00001814","TLE_LINE2":"2 46164  53.0554   0.9983 0001484  95.3419 264.7739 15.06401191111663","APOAPSIS":"548.238","MEAN_MOTION_DDOT":"0.0000000000000","DECAY_DATE":null,"SITE":"AFETR","LAUNCH_DATE":"2020-08-18","CENTER_NAME":"EARTH","MEAN_ANOMALY":"264.7739","EPHEMERIS_TYPE":"0","REV_AT_EPOCH":"11166","TLE_LINE1":"1 46164U 20057AZ  22227.80446203  .00001814  00000-0  14067-3 0  9992","ELEMENT_SET_NO":"999","TIME_SYSTEM":"UTC","RA_OF_ASC_NODE":"0.9983","ARG_OF_PERICENTER":"95.3419","PERIOD":"95.592","CLASSIFICATION_TYPE":"U","OBJECT_ID":"2020-057AZ","GP_ID":"210295745","MEAN_ELEMENT_THEORY":"SGP4","BSTAR":"0.00014067000000","OBJECT_TYPE":"PAYLOAD","SEMIMAJOR_AXIS":"6925.345"},{"RCS_SIZE":"LARGE","NORAD_CAT_ID":"46165","INCLINATION":"53.0535","REF_FRAME":"TEME","FILE":"3537378","EPOCH":"2022-08-15T20:18:51.034464","MEAN_MOTION":"15.14699760","PERIAPSIS":"520.081","ECCENTRICITY":"0.00026250","OBJECT_NAME":"STARLINK-1613","TLE_LINE2":"2 46165  53.0535  34.1594 0002625  84.6769 275.4523 15.14699760109945","APOAPSIS":"523.703","COUNTRY_CODE":"US","MEAN_MOTION_DOT":"0.00012434","MEAN_ANOMALY":"275.4523","MEAN_MOTION_DDOT":"0.0000000000000","DECAY_DATE":null,"SITE":"AFETR","LAUNCH_DATE":"2020-08-18","CENTER_NAME":"EARTH","TLE_LINE1":"1 46165U 20057BA  22227.84642401  .00012434  00000-0  67882-3 0  9998","EPHEMERIS_TYPE":"0","REV_AT_EPOCH":"10994","RA_OF_ASC_NODE":"34.1594","ARG_OF_PERICENTER":"84.6769","PERIOD":"95.068","ELEMENT_SET_NO":"999","TIME_SYSTEM":"UTC","SEMIMAJOR_AXIS":"6900.027","OBJECT_TYPE":"PAYLOAD","BSTAR":"0.00067882000000","CLASSIFICATION_TYPE":"U","OBJECT_ID":"2020-057BA","GP_ID":"210296995","MEAN_ELEMENT_THEORY":"SGP4"},{"APOAPSIS":"548.318","TLE_LINE2":"2 46166  53.0563  40.7776 0001551 108.0981 252.0177 15.06390241109855","MEAN_MOTION_DOT":"0.00001101","COUNTRY_CODE":"US","EPOCH":"2022-08-15T20:32:44.613888","MEAN_MOTION":"15.06390241","OBJECT_NAME":"STARLINK-1615","ECCENTRICITY":"0.00015510","PERIAPSIS":"546.169","REF_FRAME":"TEME","FILE":"3537378","INCLINATION":"53.0563","NORAD_CAT_ID":"46166","RCS_SIZE":"LARGE","OBJECT_TYPE":"PAYLOAD","SEMIMAJOR_AXIS":"6925.378","BSTAR":"0.00009282000000","MEAN_ELEMENT_THEORY":"SGP4","GP_ID":"210296738","OBJECT_ID":"2020-057BB","CLASSIFICATION_TYPE":"U","PERIOD":"95.593","ARG_OF_PERICENTER":"108.0981","RA_OF_ASC_NODE":"40.7776","TIME_SYSTEM":"UTC","ELEMENT_SET_NO":"999","TLE_LINE1":"1 46166U 20057BB  22227.85607192  .00001101  00000-0  92820-4 0  9998","REV_AT_EPOCH":"10985","EPHEMERIS_TYPE":"0","MEAN_ANOMALY":"252.0177","LAUNCH_DATE":"2020-08-18","CENTER_NAME":"EARTH","SITE":"AFETR","DECAY_DATE":null,"MEAN_MOTION_DDOT":"0.0000000000000"},{"TLE_LINE1":"1 46167U 20057BC  22227.73810783  .00001429  00000-0  11479-3 0  9991","REV_AT_EPOCH":"10983","EPHEMERIS_TYPE":"0","MEAN_ANOMALY":"264.3596","CENTER_NAME":"EARTH","LAUNCH_DATE":"2020-08-18","SITE":"AFETR","DECAY_DATE":null,"MEAN_MOTION_DDOT":"0.0000000000000","SEMIMAJOR_AXIS":"6925.355","OBJECT_TYPE":"PAYLOAD","BSTAR":"0.00011479000000","MEAN_ELEMENT_THEORY":"SGP4","GP_ID":"210295994","OBJECT_ID":"2020-057BC","CLASSIFICATION_TYPE":"U","PERIOD":"95.592","ARG_OF_PERICENTER":"95.7535","RA_OF_ASC_NODE":"41.3010","TIME_SYSTEM":"UTC","ELEMENT_SET_NO":"999","REF_FRAME":"TEME","FILE":"3537378","INCLINATION":"53.0541","NORAD_CAT_ID":"46167","RCS_SIZE":"LARGE","APOAPSIS":"548.082","TLE_LINE2":"2 46167  53.0541  41.3010 0001245  95.7535 264.3596 15.06398006109833","MEAN_MOTION_DOT":"0.00001429","COUNTRY_CODE":"US","EPOCH":"2022-08-15T17:42:52.516512","MEAN_MOTION":"15.06398006","OBJECT_NAME":"STARLINK-1626","ECCENTRICITY":"0.00012450","PERIAPSIS":"546.357"},{"FILE":"3537378","REF_FRAME":"TEME","INCLINATION":"53.0559","RCS_SIZE":"LARGE","NORAD_CAT_ID":"46168","COUNTRY_CODE":"US","MEAN_MOTION_DOT":"0.00000642","TLE_LINE2":"2 46168  53.0559 351.1858 0001376  94.9405 265.1741 15.06392929110535","APOAPSIS":"548.188","ECCENTRICITY":"0.00013760","OBJECT_NAME":"STARLINK-1627","PERIAPSIS":"546.282","MEAN_MOTION":"15.06392929","EPOCH":"2022-08-15T18:47:55.481856","REV_AT_EPOCH":"11053","EPHEMERIS_TYPE":"0","TLE_LINE1":"1 46168U 20057BD  22227.78328104  .00000642  00000-0  62026-4 0  9999","SITE":"AFETR","CENTER_NAME":"EARTH","LAUNCH_DATE":"2020-08-18","MEAN_MOTION_DDOT":"0.0000000000000","DECAY_DATE":null,"MEAN_ANOMALY":"265.1741","OBJECT_ID":"2020-057BD","GP_ID":"210296244","MEAN_ELEMENT_THEORY":"SGP4","CLASSIFICATION_TYPE":"U","OBJECT_TYPE":"PAYLOAD","SEMIMAJOR_AXIS":"6925.370","BSTAR":"0.00006202600000","TIME_SYSTEM":"UTC","ELEMENT_SET_NO":"999","ARG_OF_PERICENTER":"94.9405","PERIOD":"95.593","RA_OF_ASC_NODE":"351.1858"},{"MEAN_MOTION_DDOT":"0.0000000000000","DECAY_DATE":null,"SITE":"AFETR","LAUNCH_DATE":"2020-08-18","CENTER_NAME":"EARTH","MEAN_ANOMALY":"253.4915","EPHEMERIS_TYPE":"0","REV_AT_EPOCH":"10979","TLE_LINE1":"1 46169U 20057BE  22227.78736658 -.00000805  00000-0 -36102-4 0  9996","ELEMENT_SET_NO":"999","TIME_SYSTEM":"UTC","RA_OF_ASC_NODE":"41.0722","ARG_OF_PERICENTER":"106.6215","PERIOD":"95.644","CLASSIFICATION_TYPE":"U","OBJECT_ID":"2020-057BE","GP_ID":"210296496","MEAN_ELEMENT_THEORY":"SGP4","OBJECT_TYPE":"PAYLOAD","SEMIMAJOR_AXIS":"6927.848","BSTAR":"-0.00003610200000","RCS_SIZE":"LARGE","NORAD_CAT_ID":"46169","INCLINATION":"53.0016","FILE":"3537378","REF_FRAME":"TEME","PERIAPSIS":"548.819","ECCENTRICITY":"0.00012900","OBJECT_NAME":"STARLINK-1628","MEAN_MOTION":"15.05584830","EPOCH":"2022-08-15T18:53:48.472512","COUNTRY_CODE":"US","MEAN_MOTION_DOT":"-0.00000805","TLE_LINE2":"2 46169  53.0016  41.0722 0001290 106.6215 253.4915 15.05584830109796","APOAPSIS":"550.607"},{"TLE_LINE2":"2 46171  53.0560  20.8135 0001306  98.1602 261.9535 15.06394596111388","APOAPSIS":"548.135","COUNTRY_CODE":"US","MEAN_MOTION_DOT":"0.00001129","MEAN_MOTION":"15.06394596","EPOCH":"2022-08-15T20:19:27.962688","PERIAPSIS":"546.326","ECCENTRICITY":"0.00013060","OBJECT_NAME":"STARLINK-1633","REF_FRAME":"TEME","FILE":"3537378","RCS_SIZE":"LARGE","NORAD_CAT_ID":"46171","INCLINATION":"53.0560","OBJECT_TYPE":"PAYLOAD","SEMIMAJOR_AXIS":"6925.365","BSTAR":"0.00009471800000","CLASSIFICATION_TYPE":"U","OBJECT_ID":"2020-057BG","GP_ID":"210297238","MEAN_ELEMENT_THEORY":"SGP4","RA_OF_ASC_NODE":"20.8135","ARG_OF_PERICENTER":"98.1602","PERIOD":"95.592","ELEMENT_SET_NO":"999","TIME_SYSTEM":"UTC","TLE_LINE1":"1 46171U 20057BG  22227.84685142  .00001129  00000-0  94718-4 0  9992","EPHEMERIS_TYPE":"0","REV_AT_EPOCH":"11138","MEAN_ANOMALY":"261.9535","MEAN_MOTION_DDOT":"0.0000000000000","DECAY_DATE":null,"SITE":"AFETR","LAUNCH_DATE":"2020-08-18","CENTER_NAME":"EARTH"},{"FILE":"3537378","REF_FRAME":"TEME","INCLINATION":"53.0542","RCS_SIZE":"LARGE","NORAD_CAT_ID":"46172","COUNTRY_CODE":"US","MEAN_MOTION_DOT":"0.00000993","TLE_LINE2":"2 46172  53.0542  21.0398 0001455  90.5364 269.5791 15.06389310111374","APOAPSIS":"548.254","ECCENTRICITY":"0.00014550","OBJECT_NAME":"STARLINK-1635","PERIAPSIS":"546.239","EPOCH":"2022-08-15T19:05:09.756384","MEAN_MOTION":"15.06389310","REV_AT_EPOCH":"11137","EPHEMERIS_TYPE":"0","TLE_LINE1":"1 46172U 20057BH  22227.79525181  .00000993  00000-0  85552-4 0  9997","SITE":"AFETR","LAUNCH_DATE":"2020-08-18","CENTER_NAME":"EARTH","MEAN_MOTION_DDOT":"0.0000000000000","DECAY_DATE":null,"MEAN_ANOMALY":"269.5791","OBJECT_ID":"2020-057BH","GP_ID":"210295496","MEAN_ELEMENT_THEORY":"SGP4","CLASSIFICATION_TYPE":"U","SEMIMAJOR_AXIS":"6925.381","OBJECT_TYPE":"PAYLOAD","BSTAR":"0.00008555200000","TIME_SYSTEM":"UTC","ELEMENT_SET_NO":"999","ARG_OF_PERICENTER":"90.5364","PERIOD":"95.593","RA_OF_ASC_NODE":"21.0398"},{"INCLINATION":"53.0546","RCS_SIZE":"LARGE","NORAD_CAT_ID":"46173","FILE":"3537378","REF_FRAME":"TEME","ECCENTRICITY":"0.00015260","OBJECT_NAME":"STARLINK-1640","PERIAPSIS":"546.172","EPOCH":"2022-08-15T13:49:20.620704","MEAN_MOTION":"15.06395055","COUNTRY_CODE":"US","MEAN_MOTION_DOT":"0.00000596","TLE_LINE2":"2 46173  53.0546  42.0384 0001526  81.2028 278.9134 15.06395055109803","APOAPSIS":"548.286","SITE":"AFETR","CENTER_NAME":"EARTH","LAUNCH_DATE":"2020-08-18","MEAN_MOTION_DDOT":"0.0000000000000","DECAY_DATE":null,"MEAN_ANOMALY":"278.9134","REV_AT_EPOCH":"10980","EPHEMERIS_TYPE":"0","TLE_LINE1":"1 46173U 20057BJ  22227.57593311  .00000596  00000-0  58937-4 0  9990","TIME_SYSTEM":"UTC","ELEMENT_SET_NO":"999","ARG_OF_PERICENTER":"81.2028","PERIOD":"95.592","RA_OF_ASC_NODE":"42.0384","OBJECT_ID":"2020-057BJ","GP_ID":"210295746","MEAN_ELEMENT_THEORY":"SGP4","CLASSIFICATION_TYPE":"U","OBJECT_TYPE":"PAYLOAD","SEMIMAJOR_AXIS":"6925.364","BSTAR":"0.00005893700000"},{"TLE_LINE1":"1 46174U 20057BK  22227.64965424  .00001663  00000-0  13051-3 0  9990","EPHEMERIS_TYPE":"0","REV_AT_EPOCH":"10981","MEAN_ANOMALY":"280.9009","MEAN_MOTION_DDOT":"0.0000000000000","DECAY_DATE":null,"SITE":"AFETR","CENTER_NAME":"EARTH","LAUNCH_DATE":"2020-08-18","OBJECT_TYPE":"PAYLOAD","BSTAR":"0.00013051000000","SEMIMAJOR_AXIS":"6925.359","CLASSIFICATION_TYPE":"U","OBJECT_ID":"2020-057BK","MEAN_ELEMENT_THEORY":"SGP4","GP_ID":"210296996","RA_OF_ASC_NODE":"41.7063","ARG_OF_PERICENTER":"79.2147","PERIOD":"95.592","ELEMENT_SET_NO":"999","TIME_SYSTEM":"UTC","REF_FRAME":"TEME","FILE":"3537378","RCS_SIZE":"LARGE","NORAD_CAT_ID":"46174","INCLINATION":"53.0543","TLE_LINE2":"2 46174  53.0543  41.7063 0001487  79.2147 280.9009 15.06396563109816","APOAPSIS":"548.254","COUNTRY_CODE":"US","MEAN_MOTION_DOT":"0.00001663","EPOCH":"2022-08-15T15:35:30.126336","MEAN_MOTION":"15.06396563","PERIAPSIS":"546.194","ECCENTRICITY":"0.00014870","OBJECT_NAME":"STARLINK-1641"}];
